[{"OBJECT_NAME":"STARLINK-4738","OBJECT_ID":"2022-114B","EPOCH":"2026-03-09T21:22:50.096640","MEAN_MOTION":15.08834472,"ECCENTRICITY":0.00014711,"INCLINATION":53.2177,"RA_OF_ASC_NODE":303.089,"ARG_OF_PERICENTER":78.6071,"MEAN_ANOMALY":281.5086,"EPHEMERIS_TYPE":0,"CLASSIFICATION_TYPE":"U","NORAD_CAT_ID":53819,"ELEMENT_SET_NO":999,"REV_AT_EPOCH":19286,"BSTAR":-2.4494199e-5,"MEAN_MOTION_DOT":-6.78e-6,"MEAN_MOTION_DDOT":0},{"OBJECT_NAME":"SL-18 R\/B","OBJECT_ID":"2001-007B","EPOCH":"2026-03-09T23:25:11.323200","MEAN_MOTION":15.07301441,"ECCENTRICITY":0.00085554,"INCLINATION":97.6926,"RA_OF_ASC_NODE":87.6817,"ARG_OF_PERICENTER":353.225,"MEAN_ANOMALY":6.886,"EPHEMERIS_TYPE":0,"CLASSIFICATION_TYPE":"U","NORAD_CAT_ID":26703,"ELEMENT_SET_NO":999,"REV_AT_EPOCH":64619,"BSTAR":0.00021543689,"MEAN_MOTION_DOT":3.19e-5,"MEAN_MOTION_DDOT":0}]
